COSMOS 2251 DEB         
1 35721U 93036AQS 17344.49950947  .00000820  00000-0  35936-3 0  9994
2 35721  73.9550  51.2020 0176446 110.8990 251.1141 14.17182421162336
